NORAD_CAT_ID,OBJECT_NAME,OBJECT_TYPE,EPOCH,MEAN_MOTION,ECCENTRICITY,INCLINATION,RA_OF_ASC_NODE,ARG_OF_PERICENTER,MEAN_ANOMALY,BSTAR,MEAN_MOTION_DOT,MEAN_MOTION_DDOT,TLE_LINE0,TLE_LINE1,TLE_LINE2,SEMIMAJOR_AXIS,PERIOD,APOGEE,PERIGEE,DECAYED
55422.0,STARLINK-5006,PAYLOAD,2023-08-18 10:23:32,14.98327065,0.0003843,69.9995,279.8756,264.3338,95.7383,6.3485e-06,-1.7e-07,0.0,0 STARLINK-5006,1 55422U 23014AH  23230.43301702 -.00000017  00000-0  63485-5 0  9998,2 55422  69.9995 279.8756 0003843 264.3338  95.7383 14.98327065 30685,6950.202,96.107,574.738,569.396,0.0
55422.0,STARLINK-5006,PAYLOAD,2023-08-19 15:13:57,14.98332418,0.0003873,69.9993,276.8451,269.5669,90.5046,4.1945e-05,4.07e-06,0.0,0 STARLINK-5006,1 55422U 23014AH  23231.63469303  .00000407  00000-0  41945-4 0  9991,2 55422  69.9993 276.8451 0003873 269.5669  90.5046 14.98332418 30866,6950.185,96.107,574.742,569.359,0.0
55422.0,STARLINK-5006,PAYLOAD,2023-08-20 15:15:58,14.98330793,0.0003914,69.9997,274.3205,271.2018,88.8692,4.8613e-05,4.87e-06,0.0,0 STARLINK-5006,1 55422U 23014AH  23232.63609378  .00000487  00000-0  48613-4 0  9997,2 55422  69.9997 274.3205 0003914 271.2018  88.8692 14.98330793 31013,6950.19,96.107,574.776,569.335,0.0
55422.0,STARLINK-5006,PAYLOAD,2023-08-22 10:31:36,14.9832868,0.0003914,69.9998,269.7765,265.6835,94.3877,2.9273e-06,-5.8e-07,0.0,0 STARLINK-5006,1 55422U 23014AH  23234.43861497 -.00000058  00000-0  29273-5 0  9996,2 55422  69.9998 269.7765 0003914 265.6835  94.3877 14.98328680 31285,6950.197,96.107,574.782,569.342,0.0
55422.0,STARLINK-5006,PAYLOAD,2023-08-23 12:09:45,14.98330584,0.0004062,69.9992,267.0834,266.3182,93.7512,2.7123e-06,-6.1e-07,0.0,0 STARLINK-5006,1 55422U 23014AH  23235.50677336 -.00000061  00000-0  27123-5 0  9998,2 55422  69.9992 267.0834 0004062 266.3182  93.7512 14.98330584 31448,6950.191,96.107,574.879,569.233,0.0
55422.0,STARLINK-5006,PAYLOAD,2023-08-24 12:11:46,14.98330133,0.0004102,69.9991,264.558,267.4724,92.5966,1.5667e-05,9.4e-07,0.0,0 STARLINK-5006,1 55422U 23014AH  23236.50817297  .00000094  00000-0  15667-4 0  9995,2 55422  69.9991 264.5580 0004102 267.4724  92.5966 14.98330133 31592,6950.192,96.107,574.908,569.207,0.0
55422.0,STARLINK-5006,PAYLOAD,2023-08-25 12:13:46,14.98331562,0.0004105,69.999,262.0328,269.6994,90.3695,1.1112e-05,3.9e-07,0.0,0 STARLINK-5006,1 55422U 23014AH  23237.50957171  .00000039  00000-0  11112-4 0  9992,2 55422  69.9990 262.0328 0004105 269.6994  90.3695 14.98331562 32683,6950.188,96.107,574.906,569.2,0.0
55422.0,STARLINK-5006,PAYLOAD,2023-08-25 13:49:55,14.98331685,0.0004111,69.999,261.8643,269.7515,90.3173,1.9488e-05,1.39e-06,0.0,0 STARLINK-5006,1 55422U 23014AH  23237.57633133  .00000139  00000-0  19488-4 0  9993,2 55422  69.9990 261.8643 0004111 269.7515  90.3173 14.98331685 31751,6950.188,96.107,574.91,569.195,0.0
55422.0,STARLINK-5006,PAYLOAD,2023-08-26 10:39:39,14.98329849,0.000408,69.999,259.6761,269.4686,90.6006,4.6179e-06,-3.8e-07,0.0,0 STARLINK-5006,1 55422U 23014AH  23238.44421235 -.00000038  00000-0  46179-5 0  9995,2 55422  69.9990 259.6761 0004080 269.4686  90.6006 14.98329849 32824,6950.193,96.107,574.894,569.223,0.0
55422.0,STARLINK-5006,PAYLOAD,2023-08-26 13:51:55,14.98331082,0.0004108,69.9989,259.3392,269.6626,90.4062,1.6605e-05,1.05e-06,0.0,0 STARLINK-5006,1 55422U 23014AH  23238.57773116  .00000105  00000-0  16605-4 0  9991,2 55422  69.9989 259.3392 0004108 269.6626  90.4062 14.98331082 31906,6950.19,96.107,574.91,569.199,0.0
55422.0,STARLINK-5006,PAYLOAD,2023-08-27 09:05:32,14.98329652,0.0004099,69.9988,257.3193,269.1951,90.8738,-4.1924e-06,-1.43e-06,0.0,0 STARLINK-5006,1 55422U 23014AH  23239.37885232 -.00000143  00000-0 -41924-5 0  9990,2 55422  69.9988 257.3193 0004099 269.1951  90.8738 14.98329652 32968,6950.194,96.107,574.908,569.21,0.0
55422.0,STARLINK-5006,PAYLOAD,2023-08-27 13:53:56,14.98330691,0.0004119,69.9988,256.8143,269.5783,90.4904,5.5488e-06,-2.7e-07,0.0,0 STARLINK-5006,1 55422U 23014AH  23239.57913136 -.00000027  00000-0  55488-5 0  9997,2 55422  69.9988 256.8143 0004119 269.5783  90.4904 14.98330691 32053,6950.191,96.107,574.919,569.193,0.0
55422.0,STARLINK-5006,PAYLOAD,2023-08-28 18:44:22,14.98330727,0.0004163,69.9988,253.7844,268.7487,91.3195,6.257e-06,-1.9e-07,0.0,0 STARLINK-5006,1 55422U 23014AH  23240.78081049 -.00000019  00000-0  62570-5 0  9992,2 55422  69.9988 253.7844 0004163 268.7487  91.3195 14.98330727 33174,6950.191,96.107,574.949,569.162,0.0
55422.0,STARLINK-5006,PAYLOAD,2023-08-29 12:21:50,14.98332182,0.0004198,69.9989,251.9329,268.6719,91.3959,2.8925e-05,2.52e-06,0.0,0 STARLINK-5006,1 55422U 23014AH  23241.51516830  .00000252  00000-0  28925-4 0  9998,2 55422  69.9989 251.9329 0004198 268.6719  91.3959 14.98332182 33285,6950.186,96.107,574.969,569.133,0.0
55422.0,STARLINK-5006,PAYLOAD,2023-08-30 01:10:55,14.98329743,0.0004161,69.9991,250.5864,268.4511,91.6171,2.6057e-06,-6.2e-07,0.0,0 STARLINK-5006,1 55422U 23014AH  23242.04925011 -.00000062  00000-0  26057-5 0  9997,2 55422  69.9991 250.5864 0004161 268.4511  91.6171 14.98329743 32428,6950.194,96.107,574.951,569.167,0.0
55422.0,STARLINK-5006,PAYLOAD,2023-08-30 17:12:15,14.98330115,0.000403,70.0,248.9032,268.1568,91.9129,-2.5708e-05,-4e-06,0.0,0 STARLINK-5006,1 55422U 23014AH  23242.71685041 -.00000400  00000-0 -25708-4 0  9995,2 55422  70.0000 248.9032 0004030 268.1568  91.9129 14.98330115 33460,6950.193,96.107,574.858,569.257,0.0
55422.0,STARLINK-5006,PAYLOAD,2023-08-31 10:49:44,14.98318751,0.0004038,70.0,247.0517,266.1937,93.876,0.00016962,1.931e-05,0.0,0 STARLINK-5006,1 55422U 23014AH  23243.45121263  .00001931  00000-0  16962-3 0  9997,2 55422  70.0000 247.0517 0004038 266.1937  93.8760 14.98318751 32636,6950.228,96.108,574.899,569.286,0.0
55422.0,STARLINK-5006,PAYLOAD,2023-09-01 06:03:21,14.9833095,0.0003991,70.0004,245.0322,266.0693,94.001,1.7588e-05,1.17e-06,0.0,0 STARLINK-5006,1 55422U 23014AH  23244.25232817  .00000117  00000-0  17588-4 0  9995,2 55422  70.0004 245.0322 0003991 266.0693  94.0010 14.98330950 32756,6950.19,96.107,574.829,569.281,0.0
55422.0,STARLINK-5006,PAYLOAD,2023-09-01 17:16:16,14.98341472,0.0004787,70.0001,243.853,269.1651,90.8959,0.0001077,1.193e-05,0.0,0 STARLINK-5006,1 55422U 23014AH  23244.71963703  .00001193  00000-0  10770-3 0  9991,2 55422  70.0001 243.8530 0004787 269.1651  90.8959 14.98341472 32827,6950.157,96.106,575.349,568.695,0.0
55422.0,STARLINK-5006,PAYLOAD,2023-09-01 23:40:49,14.98331508,0.0004037,69.9992,243.1808,268.5536,91.5161,4.3043e-06,-4.2e-07,0.0,0 STARLINK-5006,1 55422U 23014AH  23244.98668825 -.00000042  00000-0  43043-5 0  9991,2 55422  69.9992 243.1808 0004037 268.5536  91.5161 14.98331508 32863,6950.188,96.107,574.859,569.247,0.0
55422.0,STARLINK-5006,PAYLOAD,2023-09-02 09:17:38,14.98330459,0.0004066,69.9997,242.1708,268.3658,91.7036,-5.5629e-06,-1.6e-06,0.0,0 STARLINK-5006,1 55422U 23014AH  23245.38724874 -.00000160  00000-0 -55629-5 0  9998,2 55422  69.9997 242.1708 0004066 268.3658  91.7036 14.98330459 33869,6950.191,96.107,574.882,569.231,0.0
55422.0,STARLINK-5006,PAYLOAD,2023-09-02 17:18:18,14.9833128,0.0004078,69.9987,241.329,268.4993,91.5699,3.7563e-06,-4.8e-07,0.0,0 STARLINK-5006,1 55422U 23014AH  23245.72104757 -.00000048  00000-0  37563-5 0  9999,2 55422  69.9987 241.3290 0004078 268.4993  91.5699 14.98331280 33913,6950.189,96.107,574.888,569.22,0.0
55422.0,STARLINK-5006,PAYLOAD,2023-09-03 01:18:58,14.98330246,0.0004065,69.9988,240.4873,268.1221,91.9473,-9.9817e-06,-2.12e-06,0.0,0 STARLINK-5006,1 55422U 23014AH  23246.05484830 -.00000212  00000-0 -99817-5 0  9993,2 55422  69.9988 240.4873 0004065 268.1221  91.9473 14.98330246 33025,6950.192,96.107,574.882,569.232,0.0
55422.0,STARLINK-5006,PAYLOAD,2023-09-03 09:19:39,14.98331586,0.0004081,70.0003,239.6461,268.1783,91.8909,9.9403e-06,2.5e-07,0.0,0 STARLINK-5006,1 55422U 23014AH  23246.38864681  .00000025  00000-0  99403-5 0  9996,2 55422  70.0003 239.6461 0004081 268.1783  91.8909 14.98331586 34011,6950.188,96.107,574.889,569.217,0.0
55422.0,STARLINK-5006,PAYLOAD,2023-09-04 09:21:40,14.98328791,0.0004067,70.0003,237.1213,267.8034,92.2659,-4.7133e-06,-1.49e-06,0.0,0 STARLINK-5006,1 55422U 23014AH  23247.39004920 -.00000149  00000-0 -47133-5 0  9992,2 55422  70.0003 237.1213 0004067 267.8034  92.2659 14.98328791 33221,6950.197,96.107,574.888,569.235,0.0
55422.0,STARLINK-5006,PAYLOAD,2023-09-05 09:23:40,14.98332528,0.0004045,70.0005,234.5966,267.508,92.5616,3.1812e-05,2.86e-06,0.0,0 STARLINK-5006,1 55422U 23014AH  23248.39144552  .00000286  00000-0  31812-4 0  9995,2 55422  70.0005 234.5966 0004045 267.5080  92.5616 14.98332528 33378,6950.185,96.107,574.861,569.239,0.0
55422.0,STARLINK-5006,PAYLOAD,2023-09-05 23:48:53,14.98329447,0.0004024,70.0004,233.0813,267.9451,92.1247,3.5983e-05,3.36e-06,0.0,0 STARLINK-5006,1 55422U 23014AH  23248.99228690  .00000336  00000-0  35983-4 0  9996,2 55422  70.0004 233.0813 0004024 267.9451  92.1247 14.98329447 34402,6950.195,96.107,574.856,569.263,0.0
55422.0,STARLINK-5006,PAYLOAD,2023-09-06 15:50:14,14.98322358,0.0004112,70.0007,231.3983,268.7282,91.3406,0.00018909,2.163e-05,0.0,0 STARLINK-5006,1 55422U 23014AH  23249.65988746  .00002163  00000-0  18909-3 0  9993,2 55422  70.0007 231.3983 0004112 268.7282  91.3406 14.98322358 33561,6950.217,96.107,574.939,569.224,0.0
55422.0,STARLINK-5006,PAYLOAD,2023-09-06 22:14:46,14.98330552,0.0003869,70.0011,230.7254,267.2601,92.8115,-2.5126e-06,-1.23e-06,0.0,0 STARLINK-5006,1 55422U 23014AH  23249.92692693 -.00000123  00000-0 -25126-5 0  9993,2 55422  70.0011 230.7254 0003869 267.2601  92.8115 14.98330552 34544,6950.191,96.107,574.745,569.367,0.0
55422.0,STARLINK-5006,PAYLOAD,2023-09-07 07:51:34,14.98330368,0.0003854,70.0012,229.7155,267.0401,93.0317,-2.4989e-06,-1.23e-06,0.0,0 STARLINK-5006,1 55422U 23014AH  23250.32748680 -.00000123  00000-0 -24989-5 0  9993,2 55422  70.0012 229.7155 0003854 267.0401  93.0317 14.98330368 34602,6950.192,96.107,574.735,569.378,0.0
